CSS (TIANHE)            
1 48274U 21035A   23211.60136272  .00012739  00000+0  15388-3 0  9991
2 48274  41.4747 252.0991 0007621  32.8504 105.3760 15.60496782128618
